0 COSMOS 1275 DEB *
1 13474U 81053FW  13282.71141531  .00001761  00000-0  77957-3 0  1653
2 13474 082.9266 106.2177 0020067 329.5467 154.6589 14.22601353799414
0 COSMOS 1275 DEB *
1 13474U 81053FW  13285.95265147  .00002034  00000-0  90102-3 0  1675
2 13474 082.9267 103.6127 0019921 319.1466 194.8762 14.22613220799877
0 COSMOS 1275 DEB *
1 13474U 81053FW  13287.47567262  .00002212  00000-0  98071-3 0  1689
2 13474 082.9268 102.3885 0019874 314.2376 075.2073 14.22619433800094
0 COSMOS 1275 DEB *
1 13474U 81053FW  13289.52038649  .00002772  00000-0  12304-2 0  1695
2 13474 082.9264 100.7452 0020045 307.7882 107.3797 14.22630529800384
0 COSMOS 1275 DEB *
1 13474U 81053FW  13291.22198067  .00002763  00000-0  12262-2 0  1701
2 13474 082.9269 099.3776 0019892 302.4262 182.2929 14.22637778800622
0 COSMOS 1275 DEB *
1 13474U 81053FW  13292.75644912  .00003025  00000-0  13431-2 0  1717
2 13474 082.9273 098.1441 0019918 297.3904 121.4954 14.22644561800842
0 COSMOS 1275 DEB *
1 13474U 81053FW  13293.89980289  .00003339  00000-0  14828-2 0  1723
2 13474 082.9275 097.2254 0019951 293.6144 217.5441 14.22649685801007
0 COSMOS 1275 DEB *
1 13474U 81053FW  13295.16016441  .00003476  00000-0  15440-2 0  1739
2 13474 082.9278 096.2127 0019996 289.5166 192.8473 14.22656081801182
0 COSMOS 1275 DEB *
1 13474U 81053FW  13296.21543005  .00003659  00000-0  16254-2 0  1745
2 13474 082.9278 095.3647 0020095 286.1304 197.6718 14.22662347801332
